FENGYUN 4C              
1 67246U 25312A   26156.01923115 -.00000311  00000+0  00000+0 0  9994
2 67246   0.0395 149.4658 0000636  17.9429 225.9691  1.00270463  1657
SHIJIAN-29A (SJ-29A)    
1 67302U 25315A   26155.93609898 -.00000056  00000+0  00000+0 0  9995
2 67302   3.3662  95.4127 0003375  18.6508 189.5725  1.00270241  1492
SHIJIAN-29B (SJ-29B)    
1 67403U 25315C   26155.93609898 -.00000056  00000+0  00000+0 0  9997
2 67403   3.3652  95.4036 0003588  21.0950 187.1810  1.00270221  1562
ELEKTRO-L 5             
1 67756U 26028A   26155.08730395 -.00000085  00000+0  00000+0 0  9995
2 67756   0.2761 307.2412 0001516 183.5619 229.2157  1.00271309  1129
JAM-E JAM 1             
1 67757U 26028B   26155.92813244  .00000168  00000+0  00000+0 0  9995
2 67757   0.2868 298.7548 0000719 302.2684  20.3776  1.00270424   996
ECHOSTAR 25             
1 68126U 26045A   26155.89953811  .00000000  00000+0  00000+0 0  9991
2 68126   0.0140 345.9585 0001331  97.8953  23.3305  1.00268893   876
