OBJECT_NAME,OBJECT_ID,EPOCH,MEAN_MOTION,ECCENTRICITY,INCLINATION,RA_OF_ASC_NODE,ARG_OF_PERICENTER,MEAN_ANOMALY,EPHEMERIS_TYPE,CLASSIFICATION_TYPE,NORAD_CAT_ID,ELEMENT_SET_NO,REV_AT_EPOCH,BSTAR,MEAN_MOTION_DOT,MEAN_MOTION_DDOT
FENGYUN 4C,2025-312A,2026-06-05T00:27:41.571360,1.00270463,.0000636,0.0395,149.4658,17.9429,225.9691,0,U,67246,999,165,0,-.311E-5,0
SHIJIAN-29A (SJ-29A),2025-315A,2026-06-04T22:27:58.951872,1.00270241,.00033756,3.3662,95.4127,18.6508,189.5725,0,U,67302,999,149,0,-.56E-6,0
SHIJIAN-29B (SJ-29B),2025-315C,2026-06-04T22:27:58.951872,1.00270221,.00035887,3.3652,95.4036,21.0950,187.1810,0,U,67403,999,156,0,-.56E-6,0
ELEKTRO-L 5,2026-028A,2026-06-04T02:05:43.061280,1.00271309,.00015163,0.2761,307.2412,183.5619,229.2157,0,U,67756,999,112,0,-.85E-6,0
JAM-E JAM 1,2026-028B,2026-06-04T22:16:30.642816,1.00270424,.00007195,0.2868,298.7548,302.2684,20.3776,0,U,67757,999,99,0,.168E-5,0
ECHOSTAR 25,2026-045A,2026-06-04T21:35:20.092704,1.00268893,.0001331,0.0140,345.9585,97.8953,23.3305,0,U,68126,999,87,0,0,0
